{
    "links": {
        "self": "http://www.neowsapp.com/rest/v1/neo/3172327?api_key=iIulBulltgU6a56xZRHN4H3l9WmuAYTsLGpBGhQ2"
    },
    "id": "3172327",
    "neo_reference_id": "3172327",
    "name": "(2004 BH11)",
    "designation": "2004 BH11",
    "nasa_jpl_url": "http://ssd.jpl.nasa.gov/sbdb.cgi?sstr=3172327",
    "absolute_magnitude_h": 24.1,
    "estimated_diameter": {
        "kilometers": {
            "estimated_diameter_min": 0.040230458,
            "estimated_diameter_max": 0.0899580388
        },
        "meters": {
            "estimated_diameter_min": 40.2304579834,
            "estimated_diameter_max": 89.9580388169
        },
        "miles": {
            "estimated_diameter_min": 0.0249980399,
            "estimated_diameter_max": 0.0558973165
        },
        "feet": {
            "estimated_diameter_min": 131.9896957704,
            "estimated_diameter_max": 295.1379320721
        }
    },
    "is_potentially_hazardous_asteroid": false,
    "close_approach_data": [
        {
            "close_approach_date": "2003-06-26",
            "close_approach_date_full": "2003-Jun-26 02:17",
            "epoch_date_close_approach": 1056593820000,
            "relative_velocity": {
                "kilometers_per_second": "7.2103289626",
                "kilometers_per_hour": "25957.1842653473",
                "miles_per_hour": "16128.7848564321"
            },
            "miss_distance": {
                "astronomical": "0.4516798287",
                "lunar": "175.7034533643",
                "kilometers": "67570340.295484869",
                "miles": "41986262.5307504322"
            },
            "orbiting_body": "Earth"
        },
        {
            "close_approach_date": "2003-12-28",
            "close_approach_date_full": "2003-Dec-28 09:46",
            "epoch_date_close_approach": 1072604760000,
            "relative_velocity": {
                "kilometers_per_second": "8.2312706738",
                "kilometers_per_hour": "29632.5744256407",
                "miles_per_hour": "18412.5293701988"
            },
            "miss_distance": {
                "astronomical": "0.0442052423",
                "lunar": "17.1958392547",
                "kilometers": "6613010.090913901",
                "miles": "4109133.9274217938"
            },
            "orbiting_body": "Earth"
        },
        {
            "close_approach_date": "2006-07-20",
            "close_approach_date_full": "2006-Jul-20 18:44",
            "epoch_date_close_approach": 1153421040000,
            "relative_velocity": {
                "kilometers_per_second": "21.6367505146",
                "kilometers_per_hour": "77892.3018525298",
                "miles_per_hour": "48399.24722609"
            },
            "miss_distance": {
                "astronomical": "0.4442747693",
                "lunar": "172.8228852577",
                "kilometers": "66462559.182021391",
                "miles": "41297919.2657455558"
            },
            "orbiting_body": "Earth"
        }
    ],
    "orbital_data": {
        "orbit_id": "8",
        "orbit_determination_date": "2017-04-06 09:13:17",
        "first_observation_date": "2004-01-18",
        "last_observation_date": "2004-01-28",
        "data_arc_in_days": 10,
        "observations_used": 21,
        "orbit_uncertainty": "8",
        "minimum_orbit_intersection": ".0171552",
        "jupiter_tisserand_invariant": "5.042",
        "epoch_osculation": "2453025.5",
        "eccentricity": ".3271775775570565",
        "semi_major_axis": "1.265076246870954",
        "inclination": "4.342218380148025",
        "ascending_node_longitude": "309.7758614448549",
        "orbital_period": "519.724845829568",
        "perihelion_distance": ".8511716649947423",
        "perihelion_argument": "83.04832155284477",
        "aphelion_distance": "1.678980828747165",
        "perihelion_time": "2452952.491000853008",
        "mean_anomaly": "50.57145122812949",
        "mean_motion": ".6926742157677291",
        "equinox": "J2000",
        "orbit_class": {
            "orbit_class_type": "APO",
            "orbit_class_description": "Near-Earth asteroid orbits which cross the Earth’s orbit similar to that of 1862 Apollo",
            "orbit_class_range": "a (semi-major axis) > 1.0 AU; q (perihelion) < 1.017 AU"
        }
    },
    "is_sentry_object": false
}